{"fetched_at":"2026-07-21T17:53:42.994Z","source":"https://celestrak.org/NORAD/elements/gp.php?NAME=PLEIADES&FORMAT=JSON","constellation":"pleiades-neo","records":[{"OBJECT_NAME":"PLEIADES NEO 3","OBJECT_ID":"2021-034A","EPOCH":"2026-07-21T06:56:55.351392","CLASSIFICATION_TYPE":"U","MEAN_MOTION":14.81661965,"ECCENTRICITY":0.00013467,"INCLINATION":97.8935,"RA_OF_ASC_NODE":276.5657,"ARG_OF_PERICENTER":100.2988,"MEAN_ANOMALY":259.8377,"EPHEMERIS_TYPE":0,"NORAD_CAT_ID":48268,"ELEMENT_SET_NO":999,"REV_AT_EPOCH":28270,"BSTAR":0.000059863789,"MEAN_MOTION_DOT":0.00000419,"MEAN_MOTION_DDOT":0},{"OBJECT_NAME":"PLEIADES NEO 4","OBJECT_ID":"2021-073E","EPOCH":"2026-07-21T07:45:30.253248","CLASSIFICATION_TYPE":"U","MEAN_MOTION":14.8167483,"ECCENTRICITY":0.00013897,"INCLINATION":97.8934,"RA_OF_ASC_NODE":276.595,"ARG_OF_PERICENTER":98.0668,"MEAN_ANOMALY":262.0702,"EPHEMERIS_TYPE":0,"NORAD_CAT_ID":49070,"ELEMENT_SET_NO":999,"REV_AT_EPOCH":26642,"BSTAR":0.000068858756,"MEAN_MOTION_DOT":0.0000049,"MEAN_MOTION_DDOT":0}]}
